#dP2021  5 21 12  0  0.00000000      96 __u+U ITR00 EXT  IAC
## 2158 475200.00000000   900.00000000 59355 0.5000000000000
+  115   C06C07C08C09C10C11C12C13C14C16C19C20C21C22C23C24C25
+        C26C27C28C29C30C32C33C34C35C36C37C38C39C40C41C42C43
+        C44C45C46E01E02E03E04E05E07E08E09E11E12E13E14E15E18
+        E19E21E24E25E26E27E30E31E33E36G01G02G03G04G05G06G07
+        G08G09G10G12G13G14G15G16G17G18G19G20G21G22G23G24G25
+        G26G27G29G30G31G32J01J02J03R01R02R03R04R05R07R08R09
+        R11R12R13R14R15R16R17R18R19R20R21R22R24  0  0  0  0
++        11 10  8 10 10  8  8  9  9 11  8  8  9 10  9  9  8
++         9  9  9  9 11  7 10  8  7 10  9 13  7  9  9  8  9
++         6 10 10  7  8  8  6  8  8  8  8  7  8  8  8  6  8
++         9  8  7  8  9  9  9  8  8  7  9  7  7  7  8  8  7
++         7  7  8  7  7  8  6  8  8  7  7  7  6  7  8  8  8
++         7  7  8  8  7  8  9 12 10  7  8  8  7  8  7  9 12
++         6  8  9  9  7  8  9  8  8 10  6  8  8  0  0  0  0
%c M  cc GPS ccc cccc cccc cccc cccc ccccc ccccc ccccc ccccc
%c cc cc ccc ccc cccc cccc cccc cccc ccccc ccccc ccccc ccccc
%f  0.0000000  0.000000000  0.00000000000  0.000000000000000
%f  0.0000000  0.000000000  0.00000000000  0.000000000000000
%i    0    0    0    0      0      0      0      0         0
%i    0    0    0    0      0      0      0      0         0
/* IAC                                ULTRA-RAPID PREDICTION
/* S/V CLOCKS ARE ALIGNED TO GNSS TIME                      
/* G:C1WC2W R:C1PC2P E:C1XC5X C:C2IC6I J:C1CC2S             
/* PCV:IGS14_2148 OL/AL:FES2004  NONE     YN ORB:CoN CLK:CoN
*  2021 05 22  4 45  0.00000000
PC06  -8221.924627  25557.658540 -31921.237436    412.426144
PC07 -23030.467924  26626.406641  23087.668080    155.505176
PC08 -16201.615519  38466.605027   7346.252099   -890.778301
PC09   5412.320345  33888.348978 -23898.156093    505.955076
PC10  -6819.320352  28172.887710  30708.679040    -39.591662
PC11  19997.270891  15817.636297 -11331.231831    354.853005
PC12  12305.701242  24300.947832   6131.983613    874.047416
PC13  -8108.597818  41164.807974  -5248.932795    270.124451
PC14  24365.435352   5892.388201 -12296.917743    796.833163
PC16  -4767.770068  27513.935376 -31397.586971   -851.762563
PC19 -27666.690965    658.023796   3521.364391    843.780100
PC20 -18341.091869 -10597.678781  18170.069162   -906.805977
PC21  -2423.260731  16063.237019 -22663.999574   -939.383547
PC22 -21206.264102  11869.129503 -13678.514063   -954.641458
PC23  16569.987737 -20395.970026   9400.076798   -913.352123
PC24   8326.742860  17083.460137  20435.209622   -860.192332
PC25  17853.900216  -3569.337822  21139.199462   -913.314208
PC26  -4477.672940  26219.671751   8488.667554    903.663927
PC27  -4662.691268 -23604.266797 -14175.558088    535.609131
PC28  10976.473783 -11759.101051 -22804.450723    -71.577036
PC29 -20396.557229  -6160.010531  18013.387731    395.545538
PC30 -18085.591701 -21151.295730   2231.660824    467.864327
PC32   2346.424980 -16118.823298  22680.903930   -930.972615
PC33  27681.877160   -799.329458  -3528.496761   -937.357900
PC34  18362.995767  20784.266552  -2977.567738   -668.017053
PC35 -10898.072883  11835.539768  22789.289525   -269.585543
PC36 -17843.428010   2780.470625 -21249.175314   -726.502331
PC37   5735.794479 -26196.405733  -7673.627695   -888.277673
PC38 -12985.756557  40130.837000   2122.261844    150.302844
PC39   -786.851090  28946.008076 -30573.573356     31.244737
PC40 -15251.590169  23189.446703  31710.549038    163.336232
PC41  21392.235539 -11866.746571  13482.069072   -944.508982
PC42  17758.566033  10938.097991 -18501.626081   -914.365455
PC43  20545.027523   6671.619208 -17664.275800   -741.200978
PC44   5217.172940  23393.866738  14250.018102    200.152081
PC45 -16437.442775  20546.959480  -9315.545326    446.561795
PC46  -8974.015460 -16117.680493 -20922.478318    259.911506
PE01  15833.486872 -22329.464281 -11260.729151  -1112.879070
PE02 -15745.180088  22348.341865  11363.581635    220.740792
PE03  -7038.857443  15612.144407 -24137.076856   -433.530201
PE04 -14125.698379 -18997.621600  17778.614806   -776.031675
PE05 -24434.710483   2995.558086 -16424.271836   -279.069394
PE07  27394.045388  11206.829323   -749.350549   -540.569905
PE08  14600.425725  18782.349398 -17614.734840   5998.296774
PE09 -27472.690176 -10977.120499    617.561253   5659.722767
PE11 -16030.172082 -13468.027317  20922.060033   5950.335069
PE12  -7795.230396 -28146.274360   4888.366316   5198.696860
PE13  15936.104155  13839.154006 -20747.703498    416.724255
PE14  14915.022960  20190.119534   9323.946020  -1439.356331
PE15   7895.979330  28091.932476  -4934.620837    812.990747
PE18  -3549.172915 -22745.359992 -19542.210980  -1575.743565
PE19   9438.509773 -14414.708540  24080.582165    282.919959
PE21  25044.373935 -14256.231105   6759.236659   -666.269733
PE24 -19676.562330  -3287.230141 -21886.896648   -913.078697
PE25 -25072.240296  14119.102146  -6944.172662   -534.557234
PE26  14516.187761  -9394.982134 -24025.153859   1782.845327
PE27  20148.600263   2448.357371  21545.104412    -37.579195
PE30   2428.221035  18163.005525  23238.660730   2926.049892
PE31  -3446.488612 -17585.752212 -23552.920746   -481.406930
PE33   4769.510673 -25785.662363 -13741.556428   -468.864861
PE36 -14580.308486   8513.575092  24311.105194   -210.375526
PG01 -13178.727760  12623.513699  18905.689439    682.045532
PG02  13239.484727  12942.234017 -18373.064919   -606.212220
PG03 -23239.876791  12717.930783   -595.746045   -170.583423
PG04 -17474.408226   4621.613501 -19472.613875   -197.208338
PG05  22988.477035  -2293.929536 -13424.633258    -42.652793
PG06   6818.076421  22827.262666 -11622.791698     18.220315
PG07  -7122.496616  23753.001458  -8443.269551    157.572796
PG08 -22935.572084  -3194.230708  13267.136980    -22.125061
PG09  -7204.462365  13645.739617 -21676.989726   -346.910478
PG10    156.798439 -16383.420815  20965.009071   -126.813811
PG12  24484.690369 -10013.217050   1009.643881    -44.377352
PG13  22481.772980  12269.964863   7163.228758    135.061388
PG14  -1359.168328  16688.361681  20601.985981     82.365598
PG15  23265.917876    549.677189  12749.586050   -147.734676
PG16 -20904.211019  -3459.446001 -16541.099340   -329.023947
PG17   7904.752408  19419.940275  16727.398391    446.223522
PG18   5312.782795 -25403.008962  -5491.539187    349.722548
PG19  15489.453184  19672.467723   8748.657935      3.199944
PG20  23204.605523  -9910.646319  -7756.529634    521.944171
PG21 -15336.616426   4018.851297  21974.071366    119.807697
PG22 -23673.165997   7161.946380   9605.280979   -608.237868
PG23  11874.713807 -18494.106535  14857.812317    104.587469
PG24  14843.323002  -7372.225807  20435.455859     91.902113
PG25  17557.964459 -17197.950635  -9975.838112    141.682831
PG26 -13505.595127  -9652.905704 -20837.928116     88.453477
PG27 -23543.941981 -12271.183559   3181.081286   -134.194903
PG29   8188.931127 -12259.026220 -22141.955756   -351.163462
PG30   1309.084238  26099.439938   4039.894358   -429.200139
PG31  -8652.444819 -20595.199831 -14090.226610   -118.666132
PG32 -11280.961447 -19195.251164  14722.431763     20.722702
PJ01 -32876.881669  14886.726565 -17134.832772   -382.648311
PJ02 -28103.993410  31387.548503   4421.051684      0.019583
PJ03 -25506.167070  23104.715456  29433.047849     -6.037723
PR01 -18667.915429  -8411.789679  15208.094407     79.798849
PR02 -25090.473896    124.007401  -4711.712948    479.540866
PR03 -14824.339806   7979.430816 -19134.123316     36.371426
PR04   3696.666474  10980.850615 -22691.453307     87.853454
PR05  20058.936955   8025.122170 -13528.737964     72.185461
PR07  14106.890404  -8247.247138  19614.365580    -42.442284
PR08  -3778.259955 -11132.203742  22699.625240    -59.120070
PR09  16396.538939  -9325.463891  17225.757978     -5.934683
PR11   5148.634550 -20266.200893 -14608.602953     -5.797478
PR12  -7984.846702  -7688.498281 -22947.210890    230.881557
PR13 -16036.868141   8806.365865 -17788.966002    -55.100435
PR14 -14878.230491  20651.897052  -1526.374922     64.526463
PR15  -4999.569693  20028.931652  15001.492994    103.699890
PR16   8883.449361   6766.208101  22914.041034    -15.372090
PR17  -4172.711306  13658.596481  21147.241827    426.102286
PR18   6225.251062  22997.142637   9045.302350     77.355169
PR19  12609.476902  20989.836806  -7154.022794   -144.669545
PR20  12535.301082   4708.594590 -21698.130524    -49.531580
PR21   3440.014150 -14577.190623 -20646.556521   -210.735551
PR22  -6753.556138 -23310.912594  -8033.532554   -113.885334
PR24 -12824.557812  -3621.257195  21759.566201     43.589919
EOF
